[{"OBJECT_NAME":"ONEWEB-0235","OBJECT_ID":"2021-045E","EPOCH":"2025-12-13T07:41:09.410784","MEAN_MOTION":13.15549637,"ECCENTRICITY":0.00021601,"INCLINATION":87.8999,"RA_OF_ASC_NODE":296.2713,"ARG_OF_PERICENTER":68.9789,"MEAN_ANOMALY":291.1572,"EPHEMERIS_TYPE":0,"CLASSIFICATION_TYPE":"U","NORAD_CAT_ID":48771,"ELEMENT_SET_NO":999,"REV_AT_EPOCH":21994,"BSTAR":0.00065241489,"MEAN_MOTION_DOT":2.58e-6,"MEAN_MOTION_DDOT":0},{"OBJECT_NAME":"ONEWEB-0242","OBJECT_ID":"2021-045F","EPOCH":"2025-12-13T07:32:02.128128","MEAN_MOTION":13.15549983,"ECCENTRICITY":0.00020134,"INCLINATION":87.9003,"RA_OF_ASC_NODE":296.2661,"ARG_OF_PERICENTER":78.4764,"MEAN_ANOMALY":281.6592,"EPHEMERIS_TYPE":0,"CLASSIFICATION_TYPE":"U","NORAD_CAT_ID":48772,"ELEMENT_SET_NO":999,"REV_AT_EPOCH":21998,"BSTAR":0.00084236586,"MEAN_MOTION_DOT":3.3e-6,"MEAN_MOTION_DDOT":0},{"OBJECT_NAME":"ONEWEB-0241","OBJECT_ID":"2021-045G","EPOCH":"2025-12-13T07:13:45.072768","MEAN_MOTION":13.15549801,"ECCENTRICITY":0.00019096,"INCLINATION":87.8989,"RA_OF_ASC_NODE":296.3062,"ARG_OF_PERICENTER":65.346,"MEAN_ANOMALY":294.7869,"EPHEMERIS_TYPE":0,"CLASSIFICATION_TYPE":"U","NORAD_CAT_ID":48773,"ELEMENT_SET_NO":999,"REV_AT_EPOCH":21989,"BSTAR":0.000170426,"MEAN_MOTION_DOT":7.7e-7,"MEAN_MOTION_DDOT":0},{"OBJECT_NAME":"ONEWEB-0243","OBJECT_ID":"2021-045H","EPOCH":"2025-12-13T06:09:53.483328","MEAN_MOTION":13.1554936,"ECCENTRICITY":0.00022063,"INCLINATION":87.8996,"RA_OF_ASC_NODE":296.3244,"ARG_OF_PERICENTER":75.028,"MEAN_ANOMALY":285.1095,"EPHEMERIS_TYPE":0,"CLASSIFICATION_TYPE":"U","NORAD_CAT_ID":48774,"ELEMENT_SET_NO":999,"REV_AT_EPOCH":21991,"BSTAR":0.00022198162,"MEAN_MOTION_DOT":9.6e-7,"MEAN_MOTION_DDOT":0},{"OBJECT_NAME":"ONEWEB-0222","OBJECT_ID":"2021-045J","EPOCH":"2025-12-13T07:35:27.028320","MEAN_MOTION":13.15547267,"ECCENTRICITY":0.0001915,"INCLINATION":87.9001,"RA_OF_ASC_NODE":296.266,"ARG_OF_PERICENTER":73.886,"MEAN_ANOMALY":286.2481,"EPHEMERIS_TYPE":0,"CLASSIFICATION_TYPE":"U","NORAD_CAT_ID":48775,"ELEMENT_SET_NO":999,"REV_AT_EPOCH":21996,"BSTAR":0.00041151144,"MEAN_MOTION_DOT":1.68e-6,"MEAN_MOTION_DDOT":0},{"OBJECT_NAME":"ONEWEB-0244","OBJECT_ID":"2021-045K","EPOCH":"2025-12-13T06:23:34.791360","MEAN_MOTION":13.15549939,"ECCENTRICITY":0.00019402,"INCLINATION":87.9008,"RA_OF_ASC_NODE":296.2631,"ARG_OF_PERICENTER":75.8563,"MEAN_ANOMALY":284.2783,"EPHEMERIS_TYPE":0,"CLASSIFICATION_TYPE":"U","NORAD_CAT_ID":48776,"ELEMENT_SET_NO":999,"REV_AT_EPOCH":22052,"BSTAR":-8.2873944e-5,"MEAN_MOTION_DOT":-1.8e-7,"MEAN_MOTION_DDOT":0},{"OBJECT_NAME":"ONEWEB-0247","OBJECT_ID":"2021-045L","EPOCH":"2025-12-13T06:19:01.310304","MEAN_MOTION":13.15549266,"ECCENTRICITY":0.00027228,"INCLINATION":87.8991,"RA_OF_ASC_NODE":296.3203,"ARG_OF_PERICENTER":68.7759,"MEAN_ANOMALY":291.3661,"EPHEMERIS_TYPE":0,"CLASSIFICATION_TYPE":"U","NORAD_CAT_ID":48777,"ELEMENT_SET_NO":999,"REV_AT_EPOCH":21996,"BSTAR":0.00013546787,"MEAN_MOTION_DOT":6.4e-7,"MEAN_MOTION_DDOT":0},{"OBJECT_NAME":"ONEWEB-0245","OBJECT_ID":"2021-045M","EPOCH":"2025-12-13T06:12:10.550880","MEAN_MOTION":13.15549237,"ECCENTRICITY":0.00017724,"INCLINATION":87.8993,"RA_OF_ASC_NODE":296.2856,"ARG_OF_PERICENTER":70.5742,"MEAN_ANOMALY":289.5579,"EPHEMERIS_TYPE":0,"CLASSIFICATION_TYPE":"U","NORAD_CAT_ID":48778,"ELEMENT_SET_NO":999,"REV_AT_EPOCH":21993,"BSTAR":0.00031166766,"MEAN_MOTION_DOT":1.3e-6,"MEAN_MOTION_DDOT":0},{"OBJECT_NAME":"ONEWEB-0229","OBJECT_ID":"2021-045N","EPOCH":"2025-12-13T06:05:19.729248","MEAN_MOTION":13.15549357,"ECCENTRICITY":0.00019586,"INCLINATION":87.899,"RA_OF_ASC_NODE":296.2853,"ARG_OF_PERICENTER":78.4873,"MEAN_ANOMALY":281.6477,"EPHEMERIS_TYPE":0,"CLASSIFICATION_TYPE":"U","NORAD_CAT_ID":48779,"ELEMENT_SET_NO":999,"REV_AT_EPOCH":21996,"BSTAR":0.00024496975,"MEAN_MOTION_DOT":1.05e-6,"MEAN_MOTION_DDOT":0},{"OBJECT_NAME":"ONEWEB-0228","OBJECT_ID":"2021-045P","EPOCH":"2025-12-13T06:53:26.340288","MEAN_MOTION":13.15547508,"ECCENTRICITY":0.00019009,"INCLINATION":87.8999,"RA_OF_ASC_NODE":296.2627,"ARG_OF_PERICENTER":76.3312,"MEAN_ANOMALY":283.803,"EPHEMERIS_TYPE":0,"CLASSIFICATION_TYPE":"U","NORAD_CAT_ID":48780,"ELEMENT_SET_NO":999,"REV_AT_EPOCH":21988,"BSTAR":0.00011641303,"MEAN_MOTION_DOT":5.7e-7,"MEAN_MOTION_DDOT":0},{"OBJECT_NAME":"ONEWEB-0232","OBJECT_ID":"2021-045Q","EPOCH":"2025-12-13T06:16:44.942592","MEAN_MOTION":13.15548837,"ECCENTRICITY":0.00018539,"INCLINATION":87.9009,"RA_OF_ASC_NODE":296.2604,"ARG_OF_PERICENTER":77.9418,"MEAN_ANOMALY":282.192,"EPHEMERIS_TYPE":0,"CLASSIFICATION_TYPE":"U","NORAD_CAT_ID":48781,"ELEMENT_SET_NO":999,"REV_AT_EPOCH":22020,"BSTAR":-8.7439014e-5,"MEAN_MOTION_DOT":-2.0e-7,"MEAN_MOTION_DDOT":0},{"OBJECT_NAME":"ONEWEB-0231","OBJECT_ID":"2021-045R","EPOCH":"2025-12-13T07:34:19.472160","MEAN_MOTION":13.15549315,"ECCENTRICITY":0.00020714,"INCLINATION":87.8991,"RA_OF_ASC_NODE":296.292,"ARG_OF_PERICENTER":74.0815,"MEAN_ANOMALY":286.0544,"EPHEMERIS_TYPE":0,"CLASSIFICATION_TYPE":"U","NORAD_CAT_ID":48782,"ELEMENT_SET_NO":999,"REV_AT_EPOCH":21990,"BSTAR":0.00077903436,"MEAN_MOTION_DOT":3.06e-6,"MEAN_MOTION_DDOT":0},{"OBJECT_NAME":"ONEWEB-0234","OBJECT_ID":"2021-045S","EPOCH":"2025-12-13T06:39:21.413952","MEAN_MOTION":13.15548954,"ECCENTRICITY":9.982e-5,"INCLINATION":87.8995,"RA_OF_ASC_NODE":296.2729,"ARG_OF_PERICENTER":64.9049,"MEAN_ANOMALY":295.2184,"EPHEMERIS_TYPE":0,"CLASSIFICATION_TYPE":"U","NORAD_CAT_ID":48783,"ELEMENT_SET_NO":999,"REV_AT_EPOCH":22003,"BSTAR":-0.00017493182,"MEAN_MOTION_DOT":-5.3e-7,"MEAN_MOTION_DDOT":0},{"OBJECT_NAME":"ONEWEB-0238","OBJECT_ID":"2021-045T","EPOCH":"2025-12-13T06:39:44.703936","MEAN_MOTION":13.15541749,"ECCENTRICITY":0.00014658,"INCLINATION":87.8993,"RA_OF_ASC_NODE":296.2662,"ARG_OF_PERICENTER":75.6103,"MEAN_ANOMALY":284.519,"EPHEMERIS_TYPE":0,"CLASSIFICATION_TYPE":"U","NORAD_CAT_ID":48784,"ELEMENT_SET_NO":999,"REV_AT_EPOCH":21993,"BSTAR":0.0017295693,"MEAN_MOTION_DOT":6.64e-6,"MEAN_MOTION_DDOT":0},{"OBJECT_NAME":"ONEWEB-0240","OBJECT_ID":"2021-045U","EPOCH":"2025-12-13T07:10:20.906112","MEAN_MOTION":13.15550786,"ECCENTRICITY":0.00018475,"INCLINATION":87.9005,"RA_OF_ASC_NODE":296.2578,"ARG_OF_PERICENTER":66.4079,"MEAN_ANOMALY":293.7245,"EPHEMERIS_TYPE":0,"CLASSIFICATION_TYPE":"U","NORAD_CAT_ID":48785,"ELEMENT_SET_NO":999,"REV_AT_EPOCH":21996,"BSTAR":0.00039077046,"MEAN_MOTION_DOT":1.6e-6,"MEAN_MOTION_DDOT":0},{"OBJECT_NAME":"ONEWEB-0246","OBJECT_ID":"2021-045V","EPOCH":"2025-12-13T07:02:21.749856","MEAN_MOTION":13.15550431,"ECCENTRICITY":0.00019952,"INCLINATION":87.9004,"RA_OF_ASC_NODE":296.2691,"ARG_OF_PERICENTER":79.3255,"MEAN_ANOMALY":280.81,"EPHEMERIS_TYPE":0,"CLASSIFICATION_TYPE":"U","NORAD_CAT_ID":48786,"ELEMENT_SET_NO":999,"REV_AT_EPOCH":21983,"BSTAR":2.7497918e-5,"MEAN_MOTION_DOT":2.3e-7,"MEAN_MOTION_DDOT":0},{"OBJECT_NAME":"ONEWEB-0210","OBJECT_ID":"2021-045W","EPOCH":"2025-12-13T06:25:51.571200","MEAN_MOTION":13.1555001,"ECCENTRICITY":0.00024933,"INCLINATION":87.8999,"RA_OF_ASC_NODE":296.2726,"ARG_OF_PERICENTER":76.5112,"MEAN_ANOMALY":283.6296,"EPHEMERIS_TYPE":0,"CLASSIFICATION_TYPE":"U","NORAD_CAT_ID":48787,"ELEMENT_SET_NO":999,"REV_AT_EPOCH":21987,"BSTAR":-5.439423e-5,"MEAN_MOTION_DOT":-8.0e-8,"MEAN_MOTION_DDOT":0},{"OBJECT_NAME":"ONEWEB-0214","OBJECT_ID":"2021-045X","EPOCH":"2025-12-13T06:38:24.652608","MEAN_MOTION":13.15546991,"ECCENTRICITY":0.00022276,"INCLINATION":87.9011,"RA_OF_ASC_NODE":296.2623,"ARG_OF_PERICENTER":81.8785,"MEAN_ANOMALY":278.2598,"EPHEMERIS_TYPE":0,"CLASSIFICATION_TYPE":"U","NORAD_CAT_ID":48788,"ELEMENT_SET_NO":999,"REV_AT_EPOCH":21984,"BSTAR":-0.00023092345,"MEAN_MOTION_DOT":-7.4e-7,"MEAN_MOTION_DDOT":0},{"OBJECT_NAME":"ONEWEB-0221","OBJECT_ID":"2021-045Y","EPOCH":"2025-12-13T06:48:40.866912","MEAN_MOTION":13.15549111,"ECCENTRICITY":0.00019598,"INCLINATION":87.8999,"RA_OF_ASC_NODE":296.2758,"ARG_OF_PERICENTER":73.3921,"MEAN_ANOMALY":286.7425,"EPHEMERIS_TYPE":0,"CLASSIFICATION_TYPE":"U","NORAD_CAT_ID":48789,"ELEMENT_SET_NO":999,"REV_AT_EPOCH":21993,"BSTAR":-2.7708717e-5,"MEAN_MOTION_DOT":2.0e-8,"MEAN_MOTION_DDOT":0},{"OBJECT_NAME":"ONEWEB-0213","OBJECT_ID":"2021-045Z","EPOCH":"2025-12-13T06:32:41.399232","MEAN_MOTION":13.15551063,"ECCENTRICITY":0.00020661,"INCLINATION":87.899,"RA_OF_ASC_NODE":296.2852,"ARG_OF_PERICENTER":74.3495,"MEAN_ANOMALY":285.7864,"EPHEMERIS_TYPE":0,"CLASSIFICATION_TYPE":"U","NORAD_CAT_ID":48790,"ELEMENT_SET_NO":999,"REV_AT_EPOCH":21999,"BSTAR":-0.00010829817,"MEAN_MOTION_DOT":-2.8e-7,"MEAN_MOTION_DDOT":0},{"OBJECT_NAME":"ONEWEB-0212","OBJECT_ID":"2021-045AA","EPOCH":"2025-12-13T05:59:35.824416","MEAN_MOTION":13.15551056,"ECCENTRICITY":0.00017162,"INCLINATION":87.8999,"RA_OF_ASC_NODE":296.2805,"ARG_OF_PERICENTER":76.7136,"MEAN_ANOMALY":283.4185,"EPHEMERIS_TYPE":0,"CLASSIFICATION_TYPE":"U","NORAD_CAT_ID":48791,"ELEMENT_SET_NO":999,"REV_AT_EPOCH":21998,"BSTAR":0.00022383598,"MEAN_MOTION_DOT":9.7e-7,"MEAN_MOTION_DDOT":0},{"OBJECT_NAME":"ONEWEB-0227","OBJECT_ID":"2021-045AB","EPOCH":"2025-12-13T05:58:29.165088","MEAN_MOTION":13.15549565,"ECCENTRICITY":0.00018358,"INCLINATION":87.8991,"RA_OF_ASC_NODE":296.2908,"ARG_OF_PERICENTER":75.4583,"MEAN_ANOMALY":284.6751,"EPHEMERIS_TYPE":0,"CLASSIFICATION_TYPE":"U","NORAD_CAT_ID":48792,"ELEMENT_SET_NO":999,"REV_AT_EPOCH":21993,"BSTAR":0.00050310796,"MEAN_MOTION_DOT":2.02e-6,"MEAN_MOTION_DDOT":0},{"OBJECT_NAME":"ONEWEB-0226","OBJECT_ID":"2021-045AC","EPOCH":"2025-12-13T07:38:51.862848","MEAN_MOTION":13.15546971,"ECCENTRICITY":0.00021498,"INCLINATION":87.8992,"RA_OF_ASC_NODE":296.2861,"ARG_OF_PERICENTER":77.0212,"MEAN_ANOMALY":283.1158,"EPHEMERIS_TYPE":0,"CLASSIFICATION_TYPE":"U","NORAD_CAT_ID":48793,"ELEMENT_SET_NO":999,"REV_AT_EPOCH":21991,"BSTAR":0.00044963389,"MEAN_MOTION_DOT":1.82e-6,"MEAN_MOTION_DDOT":0}]
